PROGRESS-MS 32          
1 65586U 25204A   25317.19293592  .00019765  00000+0  35825-3 0  9994
2 65586  51.6333 288.7385 0004163  64.5254 295.6165 15.49608679   272
CYGNUS NG-23            
1 65616U 25208A   25317.19293592  .00019765  00000+0  35825-3 0  9992
2 65616  51.6333 288.7385 0004163  64.5254 295.6165 15.49608679   221
DRAGONFLY               
1 65729U 98067XH  25317.14607607  .00168570  00000+0  18128-2 0  9996
2 65729  51.6293 286.1780 0004740 117.7600 242.3876 15.62653356  8525
1998-067XJ              
1 65730U 98067XJ  25317.10178596  .00536691  00000+0  31020-2 0  9993
2 65730  51.6255 284.3647 0011129 106.9362 253.2859 15.76481201  8548
1998-067XK              
1 65731U 98067XK  25317.12409927  .00105110  00000+0  12753-2 0  9991
2 65731  51.6324 286.7834 0005627  93.4194 266.7443 15.59769742  8514
RSP-03                  
1 65732U 98067XL  25317.16765655  .00141251  00000+0  16145-2 0  9994
2 65732  51.6301 286.3226 0006319  96.7198 263.4515 15.61173307  8535
GHS-01                  
1 65733U 98067XM  25317.13151792  .00186914  00000+0  19238-2 0  9994
2 65733  51.6307 286.0826 0005272 116.0346 244.1192 15.63707009  8534
YOTSUBA-KULOVER         
1 65941U 98067XN  25317.19089285  .00103577  00000+0  15049-2 0  9998
2 65941  51.6317 287.9757 0002598  53.1232 306.9997 15.54962399  5253
BOTAN                   
1 65942U 98067XP  25317.17664753  .00126511  00000+0  17364-2 0  9991
2 65942  51.6314 287.8816 0004794  65.5288 294.6203 15.56398935  5258
E-KAGAKU-1              
1 65943U 98067XQ  25317.12619523  .00085261  00000+0  12441-2 0  9999
2 65943  51.6324 288.2951 0004392  49.9249 310.2126 15.54929663  5246
HRC MONOBLOCK CAMERA    
1 66052U 98067XR  25317.11173987  .00046568  00000+0  77436-3 0  9992
2 66052  51.6317 288.9450 0004802  62.2782 297.8694 15.51576189  4233
HTV-X1                  
1 66174U 25241A   25317.19293592  .00019765  00000+0  35825-3 0  9999
2 66174  51.6333 288.7385 0004163  64.5254 295.6165 15.49608679  1457
