CCSDS_OMM_VERS = 2.0
CREATION_DATE  = 
ORIGINATOR     = 

OBJECT_NAME    = PROGRESS-MS 32
OBJECT_ID      = 2025-204A
CENTER_NAME    = EARTH
REF_FRAME      = TEME
TIME_SYSTEM    = UTC
MEAN_ELEMENT_THEORY = SGP/SGP4

EPOCH          = 2025-11-13T04:37:49.663488
MEAN_MOTION    = 15.49608679
ECCENTRICITY   = .00041633
INCLINATION    = 51.6333
RA_OF_ASC_NODE = 288.7385
ARG_OF_PERICENTER = 64.5254
MEAN_ANOMALY   = 295.6165

EPHEMERIS_TYPE = 0
CLASSIFICATION_TYPE = U
NORAD_CAT_ID   = 65586
ELEMENT_SET_NO = 999
REV_AT_EPOCH   = 27
BSTAR          = .35825426E-3
MEAN_MOTION_DOT = .19765E-3
MEAN_MOTION_DDOT = 0

CCSDS_OMM_VERS = 2.0
CREATION_DATE  = 
ORIGINATOR     = 

OBJECT_NAME    = CYGNUS NG-23
OBJECT_ID      = 2025-208A
CENTER_NAME    = EARTH
REF_FRAME      = TEME
TIME_SYSTEM    = UTC
MEAN_ELEMENT_THEORY = SGP/SGP4

EPOCH          = 2025-11-13T04:37:49.663488
MEAN_MOTION    = 15.49608679
ECCENTRICITY   = .00041633
INCLINATION    = 51.6333
RA_OF_ASC_NODE = 288.7385
ARG_OF_PERICENTER = 64.5254
MEAN_ANOMALY   = 295.6165

EPHEMERIS_TYPE = 0
CLASSIFICATION_TYPE = U
NORAD_CAT_ID   = 65616
ELEMENT_SET_NO = 999
REV_AT_EPOCH   = 22
BSTAR          = .35825426E-3
MEAN_MOTION_DOT = .19765E-3
MEAN_MOTION_DDOT = 0

CCSDS_OMM_VERS = 2.0
CREATION_DATE  = 
ORIGINATOR     = 

OBJECT_NAME    = DRAGONFLY
OBJECT_ID      = 1998-067XH
CENTER_NAME    = EARTH
REF_FRAME      = TEME
TIME_SYSTEM    = UTC
MEAN_ELEMENT_THEORY = SGP/SGP4

EPOCH          = 2025-11-13T03:30:20.972448
MEAN_MOTION    = 15.62653356
ECCENTRICITY   = .00047405
INCLINATION    = 51.6293
RA_OF_ASC_NODE = 286.1780
ARG_OF_PERICENTER = 117.7600
MEAN_ANOMALY   = 242.3876

EPHEMERIS_TYPE = 0
CLASSIFICATION_TYPE = U
NORAD_CAT_ID   = 65729
ELEMENT_SET_NO = 999
REV_AT_EPOCH   = 852
BSTAR          = .18128414E-2
MEAN_MOTION_DOT = .16857E-2
MEAN_MOTION_DDOT = 0

CCSDS_OMM_VERS = 2.0
CREATION_DATE  = 
ORIGINATOR     = 

OBJECT_NAME    = 1998-067XJ
OBJECT_ID      = 1998-067XJ
CENTER_NAME    = EARTH
REF_FRAME      = TEME
TIME_SYSTEM    = UTC
MEAN_ELEMENT_THEORY = SGP/SGP4

EPOCH          = 2025-11-13T02:26:34.306944
MEAN_MOTION    = 15.76481201
ECCENTRICITY   = .00111291
INCLINATION    = 51.6255
RA_OF_ASC_NODE = 284.3647
ARG_OF_PERICENTER = 106.9362
MEAN_ANOMALY   = 253.2859

EPHEMERIS_TYPE = 0
CLASSIFICATION_TYPE = U
NORAD_CAT_ID   = 65730
ELEMENT_SET_NO = 999
REV_AT_EPOCH   = 854
BSTAR          = .31020282E-2
MEAN_MOTION_DOT = .536691E-2
MEAN_MOTION_DDOT = 0

CCSDS_OMM_VERS = 2.0
CREATION_DATE  = 
ORIGINATOR     = 

OBJECT_NAME    = 1998-067XK
OBJECT_ID      = 1998-067XK
CENTER_NAME    = EARTH
REF_FRAME      = TEME
TIME_SYSTEM    = UTC
MEAN_ELEMENT_THEORY = SGP/SGP4

EPOCH          = 2025-11-13T02:58:42.176928
MEAN_MOTION    = 15.59769742
ECCENTRICITY   = .00056279
INCLINATION    = 51.6324
RA_OF_ASC_NODE = 286.7834
ARG_OF_PERICENTER = 93.4194
MEAN_ANOMALY   = 266.7443

EPHEMERIS_TYPE = 0
CLASSIFICATION_TYPE = U
NORAD_CAT_ID   = 65731
ELEMENT_SET_NO = 999
REV_AT_EPOCH   = 851
BSTAR          = .12752574E-2
MEAN_MOTION_DOT = .10511E-2
MEAN_MOTION_DDOT = 0

CCSDS_OMM_VERS = 2.0
CREATION_DATE  = 
ORIGINATOR     = 

OBJECT_NAME    = RSP-03
OBJECT_ID      = 1998-067XL
CENTER_NAME    = EARTH
REF_FRAME      = TEME
TIME_SYSTEM    = UTC
MEAN_ELEMENT_THEORY = SGP/SGP4

EPOCH          = 2025-11-13T04:01:25.525920
MEAN_MOTION    = 15.61173307
ECCENTRICITY   = .00063192
INCLINATION    = 51.6301
RA_OF_ASC_NODE = 286.3226
ARG_OF_PERICENTER = 96.7198
MEAN_ANOMALY   = 263.4515

EPHEMERIS_TYPE = 0
CLASSIFICATION_TYPE = U
NORAD_CAT_ID   = 65732
ELEMENT_SET_NO = 999
REV_AT_EPOCH   = 853
BSTAR          = .16145269E-2
MEAN_MOTION_DOT = .141251E-2
MEAN_MOTION_DDOT = 0

CCSDS_OMM_VERS = 2.0
CREATION_DATE  = 
ORIGINATOR     = 

OBJECT_NAME    = GHS-01
OBJECT_ID      = 1998-067XM
CENTER_NAME    = EARTH
REF_FRAME      = TEME
TIME_SYSTEM    = UTC
MEAN_ELEMENT_THEORY = SGP/SGP4

EPOCH          = 2025-11-13T03:09:23.148288
MEAN_MOTION    = 15.63707009
ECCENTRICITY   = .00052725
INCLINATION    = 51.6307
RA_OF_ASC_NODE = 286.0826
ARG_OF_PERICENTER = 116.0346
MEAN_ANOMALY   = 244.1192

EPHEMERIS_TYPE = 0
CLASSIFICATION_TYPE = U
NORAD_CAT_ID   = 65733
ELEMENT_SET_NO = 999
REV_AT_EPOCH   = 853
BSTAR          = .19237583E-2
MEAN_MOTION_DOT = .186914E-2
MEAN_MOTION_DDOT = 0

CCSDS_OMM_VERS = 2.0
CREATION_DATE  = 
ORIGINATOR     = 

OBJECT_NAME    = YOTSUBA-KULOVER
OBJECT_ID      = 1998-067XN
CENTER_NAME    = EARTH
REF_FRAME      = TEME
TIME_SYSTEM    = UTC
MEAN_ELEMENT_THEORY = SGP/SGP4

EPOCH          = 2025-11-13T04:34:53.142240
MEAN_MOTION    = 15.54962399
ECCENTRICITY   = .00025982
INCLINATION    = 51.6317
RA_OF_ASC_NODE = 287.9757
ARG_OF_PERICENTER = 53.1232
MEAN_ANOMALY   = 306.9997

EPHEMERIS_TYPE = 0
CLASSIFICATION_TYPE = U
NORAD_CAT_ID   = 65941
ELEMENT_SET_NO = 999
REV_AT_EPOCH   = 525
BSTAR          = .15049018E-2
MEAN_MOTION_DOT = .103577E-2
MEAN_MOTION_DDOT = 0

CCSDS_OMM_VERS = 2.0
CREATION_DATE  = 
ORIGINATOR     = 

OBJECT_NAME    = BOTAN
OBJECT_ID      = 1998-067XP
CENTER_NAME    = EARTH
REF_FRAME      = TEME
TIME_SYSTEM    = UTC
MEAN_ELEMENT_THEORY = SGP/SGP4

EPOCH          = 2025-11-13T04:14:22.346592
MEAN_MOTION    = 15.56398935
ECCENTRICITY   = .00047948
INCLINATION    = 51.6314
RA_OF_ASC_NODE = 287.8816
ARG_OF_PERICENTER = 65.5288
MEAN_ANOMALY   = 294.6203

EPHEMERIS_TYPE = 0
CLASSIFICATION_TYPE = U
NORAD_CAT_ID   = 65942
ELEMENT_SET_NO = 999
REV_AT_EPOCH   = 525
BSTAR          = .17363523E-2
MEAN_MOTION_DOT = .126511E-2
MEAN_MOTION_DDOT = 0

CCSDS_OMM_VERS = 2.0
CREATION_DATE  = 
ORIGINATOR     = 

OBJECT_NAME    = E-KAGAKU-1
OBJECT_ID      = 1998-067XQ
CENTER_NAME    = EARTH
REF_FRAME      = TEME
TIME_SYSTEM    = UTC
MEAN_ELEMENT_THEORY = SGP/SGP4

EPOCH          = 2025-11-13T03:01:43.267872
MEAN_MOTION    = 15.54929663
ECCENTRICITY   = .00043926
INCLINATION    = 51.6324
RA_OF_ASC_NODE = 288.2951
ARG_OF_PERICENTER = 49.9249
MEAN_ANOMALY   = 310.2126

EPHEMERIS_TYPE = 0
CLASSIFICATION_TYPE = U
NORAD_CAT_ID   = 65943
ELEMENT_SET_NO = 999
REV_AT_EPOCH   = 524
BSTAR          = .12441141E-2
MEAN_MOTION_DOT = .85261E-3
MEAN_MOTION_DDOT = 0

CCSDS_OMM_VERS = 2.0
CREATION_DATE  = 
ORIGINATOR     = 

OBJECT_NAME    = HRC MONOBLOCK CAMERA
OBJECT_ID      = 1998-067XR
CENTER_NAME    = EARTH
REF_FRAME      = TEME
TIME_SYSTEM    = UTC
MEAN_ELEMENT_THEORY = SGP/SGP4

EPOCH          = 2025-11-13T02:40:54.324768
MEAN_MOTION    = 15.51576189
ECCENTRICITY   = .00048022
INCLINATION    = 51.6317
RA_OF_ASC_NODE = 288.9450
ARG_OF_PERICENTER = 62.2782
MEAN_ANOMALY   = 297.8694

EPHEMERIS_TYPE = 0
CLASSIFICATION_TYPE = U
NORAD_CAT_ID   = 66052
ELEMENT_SET_NO = 999
REV_AT_EPOCH   = 423
BSTAR          = .77435855E-3
MEAN_MOTION_DOT = .46568E-3
MEAN_MOTION_DDOT = 0

CCSDS_OMM_VERS = 2.0
CREATION_DATE  = 
ORIGINATOR     = 

OBJECT_NAME    = HTV-X1
OBJECT_ID      = 2025-241A
CENTER_NAME    = EARTH
REF_FRAME      = TEME
TIME_SYSTEM    = UTC
MEAN_ELEMENT_THEORY = SGP/SGP4

EPOCH          = 2025-11-13T04:37:49.663488
MEAN_MOTION    = 15.49608679
ECCENTRICITY   = .00041633
INCLINATION    = 51.6333
RA_OF_ASC_NODE = 288.7385
ARG_OF_PERICENTER = 64.5254
MEAN_ANOMALY   = 295.6165

EPHEMERIS_TYPE = 0
CLASSIFICATION_TYPE = U
NORAD_CAT_ID   = 66174
ELEMENT_SET_NO = 999
REV_AT_EPOCH   = 145
BSTAR          = .35825426E-3
MEAN_MOTION_DOT = .19765E-3
MEAN_MOTION_DDOT = 0

